GLOBALSTAR M057         
1 25943U 99058A   25154.56744309 -.00000039  00000+0  48704-3 0  9997
2 25943  52.0008  26.8569 0002889   4.8798 355.2079 12.24820759165260
GLOBALSTAR M059         
1 25944U 99058B   25154.70485316 -.00000077  00000+0  11186-3 0  9990
2 25944  52.0013 243.6479 0000581 222.1140 305.0919 11.99978662161179
GLOBALSTAR M056         
1 25945U 99058C   25155.22101222  .00000004  00000+0  10737-2 0  9999
2 25945  51.9958 244.5436 0001578 153.2424 222.0794 12.04780566161108
GLOBALSTAR M031         
1 25946U 99058D   25155.18274391  .00000037  00000+0  12965-2 0  9994
2 25946  51.9937 137.7562 0001092 150.7204 293.1967 12.16035730163201
GLOBALSTAR M039         
1 25961U 99062A   25155.10022936 -.00000124  00000+0 -11131-3 0  9998
2 25961  51.9860 308.5774 0002002 329.8610  30.2141 12.62326905178598
GLOBALSTAR M034         
1 25962U 99062B   25154.63159738 -.00000176  00000+0 -15030-2 0  9995
2 25962  51.9896  46.6225 0014680  17.2845 353.8395 11.79446670136792
GLOBALSTAR M029         
1 25963U 99062C   25155.17731003 -.00000058  00000+0  35207-3 0  9994
2 25963  51.9779 130.4150 0002435  86.3348 286.8864 11.99897506167613
GLOBALSTAR M061         
1 25964U 99062D   25154.63778383 -.00000073  00000+0  12080-3 0  9998
2 25964  51.9781 230.4644 0005734 295.1914 213.3391 11.76776464119587
